ONEWEB-0444             
1 51638U 22012S   24046.48819831  .00000141  00000+0  36627-3 0  9990
2 51638  87.8932 205.6682 0001734  95.5757 264.5568 13.10374898 97662
ONEWEB-0445             
1 51639U 22012T   24046.50932508  .00000687  00000+0  19326-2 0  9992
2 51639  87.8918 205.6413 0001265 106.0516 254.0751 13.10370488 97679
ONEWEB-0446             
1 51640U 22012U   24046.48657902  .00000046  00000+0  94347-4 0  9990
2 51640  87.8937 205.6592 0001212  96.7505 263.3760 13.10377134 97651
ONEWEB-0448             
1 51641U 22012V   24046.49145784  .00000353  00000+0  97548-3 0  9998
2 51641  87.8935 205.6593 0001727  97.7205 262.4118 13.10375037 97624
ONEWEB-0449             
1 51642U 22012W   24046.49634088  .00000470  00000+0  13103-2 0  9993
2 51642  87.8929 205.6604 0001586 108.5684 251.5616 13.10375346 97632
ONEWEB-0451             
1 51643U 22012X   24046.36919023  .00000083  00000+0  18092-3 0  9998
2 51643  87.9252 175.4721 0001844 105.6604 254.4731 13.17649225101356
ONEWEB-0452             
1 51644U 22012Y   24046.44354720  .00000052  00000+0  10020-3 0  9994
2 51644  87.9253 175.4899 0001948 114.8010 245.3324 13.17648616101374
ONEWEB-0455             
1 51645U 22012Z   24046.38405878  .00000620  00000+0  26859-3 0  9997
2 51645  87.5388 152.5131 0017828  31.9086 328.3180 14.22731000104845
